[{"OBJECT_NAME":"TRANSPORTER-16 OBJECT BM","OBJECT_ID":"2026-067BM","EPOCH":"2026-04-25T12:56:51.963648","MEAN_MOTION":14.91164977,"ECCENTRICITY":0.00021673,"INCLINATION":97.7484,"RA_OF_ASC_NODE":74.5748,"ARG_OF_PERICENTER":210.6665,"MEAN_ANOMALY":149.4427,"EPHEMERIS_TYPE":0,"CLASSIFICATION_TYPE":"U","NORAD_CAT_ID":68475,"ELEMENT_SET_NO":999,"REV_AT_EPOCH":335,"BSTAR":0.0008226523,"MEAN_MOTION_DOT":8.117e-5,"MEAN_MOTION_DDOT":0},{"OBJECT_NAME":"TRANSPORTER-16 OBJECT BN","OBJECT_ID":"2026-067BN","EPOCH":"2026-04-25T14:01:40.935648","MEAN_MOTION":14.92339702,"ECCENTRICITY":0.00040919,"INCLINATION":97.7527,"RA_OF_ASC_NODE":74.6775,"ARG_OF_PERICENTER":82.4602,"MEAN_ANOMALY":277.7082,"EPHEMERIS_TYPE":0,"CLASSIFICATION_TYPE":"U","NORAD_CAT_ID":68476,"ELEMENT_SET_NO":999,"REV_AT_EPOCH":388,"BSTAR":0.00036262628,"MEAN_MOTION_DOT":3.652e-5,"MEAN_MOTION_DDOT":0},{"OBJECT_NAME":"TRANSPORTER-16 OBJECT BP","OBJECT_ID":"2026-067BP","EPOCH":"2026-04-25T12:56:53.522304","MEAN_MOTION":14.91137396,"ECCENTRICITY":0.00028164,"INCLINATION":97.7491,"RA_OF_ASC_NODE":74.5755,"ARG_OF_PERICENTER":217.6528,"MEAN_ANOMALY":142.4494,"EPHEMERIS_TYPE":0,"CLASSIFICATION_TYPE":"U","NORAD_CAT_ID":68477,"ELEMENT_SET_NO":999,"REV_AT_EPOCH":328,"BSTAR":0.00075549779,"MEAN_MOTION_DOT":7.444e-5,"MEAN_MOTION_DDOT":0},{"OBJECT_NAME":"FOSSASAT-2E25","OBJECT_ID":"2026-067BQ","EPOCH":"2026-04-25T22:10:24.932352","MEAN_MOTION":14.92044971,"ECCENTRICITY":0.00035215,"INCLINATION":97.756,"RA_OF_ASC_NODE":75.0113,"ARG_OF_PERICENTER":92.3118,"MEAN_ANOMALY":267.8504,"EPHEMERIS_TYPE":0,"CLASSIFICATION_TYPE":"U","NORAD_CAT_ID":68478,"ELEMENT_SET_NO":999,"REV_AT_EPOCH":393,"BSTAR":0.00012171585,"MEAN_MOTION_DOT":1.179e-5,"MEAN_MOTION_DDOT":0},{"OBJECT_NAME":"TRANSPORTER-16 OBJECT BR","OBJECT_ID":"2026-067BR","EPOCH":"2026-04-25T14:06:24.693120","MEAN_MOTION":14.92148166,"ECCENTRICITY":0.0003213,"INCLINATION":97.7514,"RA_OF_ASC_NODE":74.6696,"ARG_OF_PERICENTER":81.7722,"MEAN_ANOMALY":278.3861,"EPHEMERIS_TYPE":0,"CLASSIFICATION_TYPE":"U","NORAD_CAT_ID":68479,"ELEMENT_SET_NO":999,"REV_AT_EPOCH":388,"BSTAR":0.00048818873,"MEAN_MOTION_DOT":4.913e-5,"MEAN_MOTION_DDOT":0},{"OBJECT_NAME":"TRANSPORTER-16 OBJECT BS","OBJECT_ID":"2026-067BS","EPOCH":"2026-04-25T15:31:31.168128","MEAN_MOTION":14.92592974,"ECCENTRICITY":0.00057165,"INCLINATION":97.7591,"RA_OF_ASC_NODE":74.7666,"ARG_OF_PERICENTER":85.8437,"MEAN_ANOMALY":274.3436,"EPHEMERIS_TYPE":0,"CLASSIFICATION_TYPE":"U","NORAD_CAT_ID":68480,"ELEMENT_SET_NO":999,"REV_AT_EPOCH":389,"BSTAR":0.00031937803,"MEAN_MOTION_DOT":3.231e-5,"MEAN_MOTION_DDOT":0},{"OBJECT_NAME":"TORO3","OBJECT_ID":"2026-067BT","EPOCH":"2026-04-25T14:09:11.987712","MEAN_MOTION":14.91997938,"ECCENTRICITY":0.00041774,"INCLINATION":97.7633,"RA_OF_ASC_NODE":74.6979,"ARG_OF_PERICENTER":114.0687,"MEAN_ANOMALY":246.0969,"EPHEMERIS_TYPE":0,"CLASSIFICATION_TYPE":"U","NORAD_CAT_ID":68481,"ELEMENT_SET_NO":999,"REV_AT_EPOCH":388,"BSTAR":0.00017124593,"MEAN_MOTION_DOT":1.68e-5,"MEAN_MOTION_DDOT":0},{"OBJECT_NAME":"TRANSPORTER-16 OBJECT BU","OBJECT_ID":"2026-067BU","EPOCH":"2026-04-25T15:31:32.690496","MEAN_MOTION":14.92592258,"ECCENTRICITY":0.00051901,"INCLINATION":97.7538,"RA_OF_ASC_NODE":74.7528,"ARG_OF_PERICENTER":73.4194,"MEAN_ANOMALY":286.7595,"EPHEMERIS_TYPE":0,"CLASSIFICATION_TYPE":"U","NORAD_CAT_ID":68482,"ELEMENT_SET_NO":999,"REV_AT_EPOCH":389,"BSTAR":0.00033320453,"MEAN_MOTION_DOT":3.373e-5,"MEAN_MOTION_DDOT":0},{"OBJECT_NAME":"TRANSPORTER-16 OBJECT BV","OBJECT_ID":"2026-067BV","EPOCH":"2026-04-25T18:51:02.676960","MEAN_MOTION":14.92321292,"ECCENTRICITY":0.00049126,"INCLINATION":97.7612,"RA_OF_ASC_NODE":74.8976,"ARG_OF_PERICENTER":95.5695,"MEAN_ANOMALY":264.6084,"EPHEMERIS_TYPE":0,"CLASSIFICATION_TYPE":"U","NORAD_CAT_ID":68483,"ELEMENT_SET_NO":999,"REV_AT_EPOCH":391,"BSTAR":0.00042448547,"MEAN_MOTION_DOT":4.283e-5,"MEAN_MOTION_DDOT":0},{"OBJECT_NAME":"TRANSPORTER-16 OBJECT BW","OBJECT_ID":"2026-067BW","EPOCH":"2026-04-24T20:30:17.683776","MEAN_MOTION":14.92025397,"ECCENTRICITY":0.00029682,"INCLINATION":97.7582,"RA_OF_ASC_NODE":73.9564,"ARG_OF_PERICENTER":114.9557,"MEAN_ANOMALY":245.1971,"EPHEMERIS_TYPE":0,"CLASSIFICATION_TYPE":"U","NORAD_CAT_ID":68484,"ELEMENT_SET_NO":999,"REV_AT_EPOCH":377,"BSTAR":0.00018597903,"MEAN_MOTION_DOT":1.831e-5,"MEAN_MOTION_DDOT":0},{"OBJECT_NAME":"TRANSPORTER-16 OBJECT BX","OBJECT_ID":"2026-067BX","EPOCH":"2026-04-25T18:59:44.432736","MEAN_MOTION":14.92062502,"ECCENTRICITY":0.00030258,"INCLINATION":97.7549,"RA_OF_ASC_NODE":74.8734,"ARG_OF_PERICENTER":104.0611,"MEAN_ANOMALY":256.0945,"EPHEMERIS_TYPE":0,"CLASSIFICATION_TYPE":"U","NORAD_CAT_ID":68485,"ELEMENT_SET_NO":999,"REV_AT_EPOCH":391,"BSTAR":0.00065315777,"MEAN_MOTION_DOT":6.579e-5,"MEAN_MOTION_DDOT":0},{"OBJECT_NAME":"TRANSPORTER-16 OBJECT BY","OBJECT_ID":"2026-067BY","EPOCH":"2026-04-25T12:37:34.041216","MEAN_MOTION":14.91798481,"ECCENTRICITY":0.00023899,"INCLINATION":97.7547,"RA_OF_ASC_NODE":74.6045,"ARG_OF_PERICENTER":105.3724,"MEAN_ANOMALY":254.7759,"EPHEMERIS_TYPE":0,"CLASSIFICATION_TYPE":"U","NORAD_CAT_ID":68486,"ELEMENT_SET_NO":999,"REV_AT_EPOCH":387,"BSTAR":0.00022490016,"MEAN_MOTION_DOT":2.213e-5,"MEAN_MOTION_DDOT":0},{"OBJECT_NAME":"TRANSPORTER-16 OBJECT BZ","OBJECT_ID":"2026-067BZ","EPOCH":"2026-04-25T14:03:20.437344","MEAN_MOTION":14.92275825,"ECCENTRICITY":0.00035011,"INCLINATION":97.7507,"RA_OF_ASC_NODE":74.6713,"ARG_OF_PERICENTER":74.7048,"MEAN_ANOMALY":285.4558,"EPHEMERIS_TYPE":0,"CLASSIFICATION_TYPE":"U","NORAD_CAT_ID":68487,"ELEMENT_SET_NO":999,"REV_AT_EPOCH":388,"BSTAR":0.00037400925,"MEAN_MOTION_DOT":3.762e-5,"MEAN_MOTION_DDOT":0},{"OBJECT_NAME":"TRANSPORTER-16 OBJECT CA","OBJECT_ID":"2026-067CA","EPOCH":"2026-04-25T12:44:37.431456","MEAN_MOTION":14.91592036,"ECCENTRICITY":0.00014401,"INCLINATION":97.7537,"RA_OF_ASC_NODE":74.5968,"ARG_OF_PERICENTER":130.3296,"MEAN_ANOMALY":229.8049,"EPHEMERIS_TYPE":0,"CLASSIFICATION_TYPE":"U","NORAD_CAT_ID":68488,"ELEMENT_SET_NO":999,"REV_AT_EPOCH":387,"BSTAR":0.00010505827,"MEAN_MOTION_DOT":9.99e-6,"MEAN_MOTION_DDOT":0},{"OBJECT_NAME":"TRANSPORTER-16 OBJECT CB","OBJECT_ID":"2026-067CB","EPOCH":"2026-04-25T14:26:54.883968","MEAN_MOTION":14.91303716,"ECCENTRICITY":8.301e-5,"INCLINATION":97.7505,"RA_OF_ASC_NODE":74.6474,"ARG_OF_PERICENTER":188.7979,"MEAN_ANOMALY":171.3225,"EPHEMERIS_TYPE":0,"CLASSIFICATION_TYPE":"U","NORAD_CAT_ID":68489,"ELEMENT_SET_NO":999,"REV_AT_EPOCH":388,"BSTAR":0.00021549286,"MEAN_MOTION_DOT":2.091e-5,"MEAN_MOTION_DDOT":0},{"OBJECT_NAME":"TRANSPORTER-16 OBJECT CC","OBJECT_ID":"2026-067CC","EPOCH":"2026-04-25T12:48:17.270208","MEAN_MOTION":14.91374861,"ECCENTRICITY":0.00022231,"INCLINATION":97.758,"RA_OF_ASC_NODE":74.604,"ARG_OF_PERICENTER":156.3004,"MEAN_ANOMALY":203.8318,"EPHEMERIS_TYPE":0,"CLASSIFICATION_TYPE":"U","NORAD_CAT_ID":68490,"ELEMENT_SET_NO":999,"REV_AT_EPOCH":387,"BSTAR":0.00017267135,"MEAN_MOTION_DOT":1.668e-5,"MEAN_MOTION_DDOT":0}]
